ONEWEB-0176             
1 48210U 21031A   25054.93095590 -.00000104  00000+0 -31604-3 0  9991
2 48210  87.9038  24.7878 0001909  83.6510 276.4837 13.14502979185484
ONEWEB-0184             
1 48211U 21031B   25054.90399911  .00000240  00000+0  61167-3 0  9999
2 48211  87.9032  24.7677 0002753  81.8360 278.3082 13.14501412185458
ONEWEB-0179             
1 48212U 21031C   25054.94998595 -.00000090  00000+0 -27822-3 0  9992
2 48212  87.9036  24.7708 0001838  80.1244 280.0093 13.14503221185502
ONEWEB-0180             
1 48213U 21031D   25054.90716176  .00000259  00000+0  66491-3 0  9992
2 48213  87.9034  24.7707 0002034  77.9956 282.1402 13.14504889185387
ONEWEB-0218             
1 48214U 21031E   25055.15771844 -.00000119  00000+0 -35526-3 0  9996
2 48214  87.9035  24.7221 0002839  74.8584 285.2860 13.14504530185572
ONEWEB-0209             
1 48215U 21031F   25055.45109842  .00000126  00000+0  30568-3 0  9990
2 48215  87.9039  24.7038 0001819  77.1629 282.9704 13.14502721185612
ONEWEB-0198             
1 48216U 21031G   25055.43523940  .00000322  00000+0  83362-3 0  9996
2 48216  87.9035  24.7096 0002151  75.2881 284.8487 13.14503482185706
ONEWEB-0189             
1 48217U 21031H   25054.91509385  .00000144  00000+0  35398-3 0  9994
2 48217  87.9035  24.7875 0002157  72.8288 287.3078 13.14502617185390
